445P/Lemmon-PANSTARRS,e,1.0885,126.5923,213.4584,4.053774,0.1207577,0.41406766,55.0558,11/16.0/2023,2000,g 15.0,4.0
# From MPEC 2022-WQ9
446P/McNaught,e,16.6141,336.3860,344.6916,4.567011,0.1009848,0.64684394,54.0822,11/16.0/2023,2000,g 16.5,4.0
# From MPEC 2022-YB4
447P/Sheppard-Tholen,e,7.4364,302.6452,97.7389,5.635206,0.0736783,0.17879545,33.4280,11/16.0/2023,2000,g 12.0,4.0
# From MPEC 2023-A50
448P/PANSTARRS,e,12.1511,161.7553,218.7418,3.634532,0.1422432,0.41876147,61.9415,11/16.0/2023,2000,g 16.0,4.0
# From MPEC 2022-UE6
449P/Leonard,e,15.4660,242.5407,176.6971,3.600081,0.1442898,0.47982421,156.7922,11/16.0/2023,2000,g 16.0,4.0
# From MPEC 2023-RF3
450P/LONEOS,e,10.5545,124.8166,21.2487,7.973803,0.0437730,0.31159215,309.3112,11/16.0/2023,2000,g  6.5,4.0
# From MPEC 2023-HD1
451P/Christensen,e,26.4796,300.9010,186.7116,6.342523,0.0617037,0.55877980,21.8072,11/16.0/2023,2000,g 15.5,4.0
# From MPEC 2023-J29
452P/Sheppard-Jewitt,e,6.4217,123.6905,37.0400,7.300124,0.0499699,0.42767109,10.2170,11/16.0/2023,2000,g  9.0,4.0
# From MPEC 2023-RF3
453P/WISE-Lemmon,e,27.0682,42.8956,70.8417,5.460906,0.0772337,0.58275702,19.9206,11/16.0/2023,2000,g 14.0,4.0
# From MPEC 2023-CD7
454P/PANSTARRS,e,19.8127,54.5826,20.0591,4.207548,0.1141985,0.36154551,54.5595,11/16.0/2023,2000,g 14.0,4.0
# From MPEC 2022-Y14
455P/PANSTARRS,e,14.1376,146.1848,237.5139,3.152988,0.1760437,0.30494550,46.4326,11/16.0/2023,2000,g 17.0,4.0
# From MPEC 2023-N01
456P/PANSTARRS,e,16.9627,243.1746,233.9804,3.169490,0.1746707,0.11781246,269.1725,11/16.0/2023,2000,g 13.5,4.0
# From MPEC 2023-F99
457P/Lemmon-PANSTARRS,e,5.2253,175.9744,104.4248,2.646029,0.2289878,0.11873536,296.2342,11/16.0/2023,2000,g 15.5,4.0
# From MPEC 2023-HD1
458P/Jahn,e,13.6276,1.5875,104.8148,3.857051,0.1301131,0.31703300,49.6719,11/16.0/2023,2000,g 17.3,4.0
# From MPEC 2023-UR6
459P/Catalina,e,7.1724,256.9919,205.1939,3.239395,0.1690473,0.57765479,45.2364,11/16.0/2023,2000,g 15.5,4.0
# From MPEC 2023-G14
460P/PANSTARRS,e,18.8950,180.5154,351.9597,3.027075,0.1871412,0.66403534,165.1557,11/16.0/2023,2000,g 21.0,4.0
# From MPEC 2023-J95
461P/WISE,e,18.4115,194.3767,174.8214,3.142997,0.1768839,0.57021823,136.5679,11/16.0/2023,2000,g 18.5,4.0
# From MPEC 2023-JA3
462P/LONEOS-PANSTARRS,e,7.0253,322.8075,4.3988,4.880981,0.0913994,0.57829404,43.0477,11/16.0/2023,2000,g 17.0,4.0
# From MPEC 2023-RF3
463P/NEOWISE,e,29.2822,283.2090,216.3614,2.974568,0.1921181,0.82557638,44.4515,11/16.0/2023,2000,g 18.0,4.0
# From MPEC 2023-RF3
464P/PANSTARRS,e,21.6652,309.5836,267.6681,4.687282,0.0971231,0.28054261,25.3535,11/16.0/2023,2000,g 10.5,4.0
# From MPEC 2023-VM5
465P/Hill,e,25.8719,218.0114,141.2146,6.038255,0.0664258,0.61421635,12.6320,11/16.0/2023,2000,g 12.5,4.0
# From MPEC 2023-VM5
466P/PANSTARRS,e,12.2351,119.8557,196.7394,4.044023,0.1211947,0.46715828,23.7850,11/16.0/2023,2000,g 14.0,4.0
# From MPEC 2023-T65
467P/LINEAR-Grauer,e,2.4788,43.2726,267.8260,5.831921,0.0699820,0.05546610,24.4555,11/16.0/2023,2000,g  9.0,4.0
# From MPEC 2023-VM5
468P/SidingSpring,e,50.4454,356.1245,322.5539,7.123594,0.0518388,0.44552216,359.7382,11/16.0/2023,2000,g 11.5,4.0
# From MPEC 2023-P35
469P/PANSTARRS,e,20.1742,178.9644,43.5409,4.339635,0.1090245,0.30743254,277.8144,11/16.0/2023,2000,g 13.5,4.0
# From MPEC 2023-VM5
470P/PANSTARRS,e,8.8385,246.1839,152.0528,4.475949,0.1040822,0.39036208,356.6417,11/16.0/2023,2000,g 15.5,4.0
# From MPEC 2023-VM5
471P/,e,4.7909,283.3432,94.9585,5.707285,0.0722869,0.62794837,357.5208,11/16.0/2023,2000,g 12.0,4.0
# From MPC107687
1I/`Oumuamua,h,09/09.4886/2017,122.6778,24.5997,241.6845,1.199252,0.255240,2000,23.0,2.0
# From MPEC 2023-L37
2I/Borisov,h,12/08.5548/2019,44.0527,308.1480,209.1251,3.356633,2.006548,2000,11.0,4.0
